#dP2018  4 20  0  0  0.00000000      96 __u+U ITR00 FIT  IAC
## 1997 432000.00000000   900.00000000 58228 0.0000000000000
+   87   C01C02C03C04C05C06C07C08C09C10C11C12C13C14E01E02E03
+        E04E05E07E08E09E11E12E14E18E19E24E26E30G01G02G03G04
+        G05G06G07G08G09G10G11G12G13G14G15G16G17G18G19G20G21
+        G22G23G24G25G26G27G28G29G30G31G32J01J03R01R02R03R04
+        R05R07R08R09R10R11R13R14R15R16R17R18R19R20R21R22R23
+        R24R26  0  0  0  0  0  0  0  0  0  0  0  0  0  0  0
++         0  0  0  0  0  0  0  0  0  0  0  0  0  0  0  0  0
++         0  0  0  0  0  0  0  0  0  0  0  0  0  0  0  0  0
++         0  0  0  0  0  0  0  0  0  0  0  0  0  0  0  0  0
++         0  0  0  0  0  0  0  0  0  0  0  0  0  0  0  0  0
++         0  0  0  0  0  0  0  0  0  0  0  0  0  0  0  0  0
++         0  0  0  0  0  0  0  0  0  0  0  0  0  0  0  0  0
%c M  cc GPS ccc cccc cccc cccc cccc ccccc ccccc ccccc ccccc
%c cc cc ccc ccc cccc cccc cccc cccc ccccc ccccc ccccc ccccc
%f  0.0000000  0.000000000  0.00000000000  0.000000000000000
%f  0.0000000  0.000000000  0.00000000000  0.000000000000000
%i    0    0    0    0      0      0      0      0         0
%i    0    0    0    0      0      0      0      0         0
/*                                                          
/*   RSA / INFORMATION & ANALYSIS CENTER (IAC) OF MCC       
/*   ULTRA-RAPID DETERMINATION                              
/* PCV:IGS14_1992 OL/AL:FES2004  NONE     YN ORB:CoN CLK:CoN
*  2018 04 20 17 15  0.00000000
PC01 -32274.461917  27120.398147  -1025.025034    636.115460
PC02   4364.067322  41925.421568   1186.407419    591.805686
PC03 -14781.166150  39527.020228   -409.390946   -402.590706
PC04 -39589.191000  14463.443987   -372.686987   -221.096645
PC05  21943.818952  35991.964481   1545.279376     47.850392
PC06  -9925.693783  36242.392852  19705.305973     -0.972988
PC07 -14152.005003  21731.137419 -33170.532393    181.329983
PC08 -25715.233560  30451.387182  13479.715878    296.486440
PC09    133.441069  42115.422097   4472.066693   -202.565846
PC10   1382.340926  26702.158166 -32441.880937   -172.232610
PC11  17541.389342  -3186.228056  21542.972787   -475.868159
PC12   7515.159404  16677.029951  21105.490822    420.183546
PC13 -12390.332799  31446.520263  25072.559444   -297.099411
PC14  20404.072139   8660.770112 -16924.668373    418.761311
PE01 -15321.200310  11046.600600 -22797.386812   -326.202938
PE02  15303.958753 -11050.507831  22795.596193     11.193488
PE03   8963.244716 -20734.221592 -19126.337882    -23.188116
PE04   4700.114516  29052.404026   3205.884501    -18.307327
PE05  17438.590429   -218.981108 -23910.400334    280.780676
PE07 -15692.268972 -20351.441200  14703.872903     46.877328
PE08  -5005.369827 -28999.217348  -3217.215772   6600.532075
PE09  15772.110495  20263.922957 -14703.388936   6814.569540
PE11  14356.170572   8852.524520  24324.039436   1833.633691
PE12  -3955.266848  22061.920709  19355.928985   3980.841295
PE14   5621.753009  21052.353652  12996.433294   6595.937301
PE18 -15663.727273 -14666.299167 -23032.988244   6267.688299
PE19  -9921.721691  19170.780703  20265.221469     21.530683
PE24  24448.780683  13695.964460  -9573.644419   6748.855194
PE26 -23867.883778   8859.183198 -15097.186162   6028.084587
PE30  -6517.170549 -17552.347527  22910.227665   5904.808614
PG01   -598.456599 -15478.708560 -21681.425873    -42.059730
PG02 -20088.359709  15075.455373   8794.430543    138.888067
PG03  -8917.646376 -20724.259284 -14080.649842     54.604216
PG04  20621.645553   4159.454680  16138.315337     53.886758
PG05 -10588.929790  11288.107129  21489.825548     -9.494875
PG06 -25550.818770   5974.222643  -4164.072832    407.888605
PG07 -17090.289836  -8364.977456  18922.227514    204.453056
PG08   4579.354200 -26077.376430    -95.646046    -98.524643
PG09  -9827.711169 -17026.489993  17820.721046    511.774799
PG10  22315.814884   8053.165017 -12055.693345    180.226016
PG11   1595.901515 -20416.290582 -17543.498641   -737.279436
PG12   5698.098177  20536.222929 -16163.541728    338.450272
PG13 -12459.370340  22180.456814   7528.545413    -95.007739
PG14  15928.053663 -10691.670577 -18005.083804    -96.315030
PG15  -2208.463553  26250.144286   -787.046433   -355.244405
PG16  11206.212224  -9361.981827  22041.271939     27.144656
PG17 -15054.749051   1444.022217 -21431.444916   -105.252015
PG18   8358.193604 -17542.469610 -18478.171070     -0.746125
PG19 -16194.136037   8738.986442 -19511.929236   -442.272282
PG20  16384.079009  19090.282514   8533.794007    506.258805
PG21  19561.650004   5984.622156  17743.012434   -405.040571
PG22   -923.560194 -18535.507219 -18751.024919   -364.555882
PG23  -1660.200463 -25044.591637   8271.057838   -217.809561
PG24  -2786.867533  16966.952868 -20291.313837    -48.777392
PG25  17264.502577  19715.605081  -5228.255589   -572.664043
PG26  18854.235806  -1475.513769  18691.819280   -176.058029
PG27  12139.390745 -19993.996957  12258.040773    370.133261
PG28 -21041.454733 -12764.567033  -9303.774236    708.081177
PG29   6157.810449  19978.818403  16376.456077    463.115856
PG30 -23499.119697  -2430.886096  12298.096310     82.678129
PG31  25905.750753  -6339.367112  -2485.873115    127.142786
PG32  15479.817937   -390.287422 -21539.250174   -518.697588
PJ01 -25347.588231  22971.103686  29758.612304   -296.238442
PJ03 -21347.969174  29864.469480 -16125.230549    -16.066174
PR01 -13785.280494 -19218.578975   9581.090535     25.086807
PR02 -12259.567533  -1663.780075  22340.727899    305.800453
PR03  -3571.758440  15584.744818  19931.771182    129.990767
PR04   7536.866385  23751.200048   5510.878175    257.907570
PR05      0.000000      0.000000      0.000000 999999.999999
PR07   3308.667749 -15866.357960 -19647.147169    -35.620865
PR08  -7198.644874 -23703.392016  -6024.395928    -13.802199
PR09  24686.493349     22.354652   6300.715577     33.168636
PR10  13650.948632  -7604.202920  20108.478731     22.884529
PR11  -5767.125872 -11354.975284  22116.312219    -26.909203
PR13 -24626.781757    521.693466  -6660.143424     -9.627217
PR14 -13940.204625   7784.244095 -19891.212027     26.509247
PR15   1631.130202  10875.899823 -23020.924163     -9.051574
PR16  21200.348847   7901.930084 -11919.507843     90.686348
PR17 -15646.089541  20101.687218  -1043.225946    126.237984
PR18  -6119.317977  19692.598162  15078.652564    192.613182
PR19   6858.518775   8231.086856  23151.950815    -50.515093
PR20  16709.445694  -8878.777388  17083.828510   -335.077191
PR21  15535.139491 -20228.102571    759.101039     19.966258
PR22   4662.960131 -18735.282210 -16585.983242    -36.499922
PR23  -9530.284522  -4836.140488 -23166.421430    148.891261
PR24 -16799.162720   9908.976437 -16475.035667   -165.269282
PR26  16454.379148  -8760.276290  17432.589281     13.999925
EOF
